[{"OBJECT_NAME":"STARLINK-4167","OBJECT_ID":"2022-076AZ","EPOCH":"2026-02-21T12:41:15.273600","MEAN_MOTION":15.08854224,"ECCENTRICITY":0.00011416,"INCLINATION":53.216,"RA_OF_ASC_NODE":146.672,"ARG_OF_PERICENTER":81.0634,"MEAN_ANOMALY":279.0488,"EPHEMERIS_TYPE":0,"CLASSIFICATION_TYPE":"U","NORAD_CAT_ID":53033,"ELEMENT_SET_NO":999,"REV_AT_EPOCH":20068,"BSTAR":0.0001600595,"MEAN_MOTION_DOT":2.261e-5,"MEAN_MOTION_DDOT":0},{"OBJECT_NAME":"STARLINK-4151","OBJECT_ID":"2022-076BA","EPOCH":"2026-02-21T11:17:50.448192","MEAN_MOTION":15.08845892,"ECCENTRICITY":0.00012646,"INCLINATION":53.2168,"RA_OF_ASC_NODE":146.9813,"ARG_OF_PERICENTER":119.1307,"MEAN_ANOMALY":240.9812,"EPHEMERIS_TYPE":0,"CLASSIFICATION_TYPE":"U","NORAD_CAT_ID":53034,"ELEMENT_SET_NO":999,"REV_AT_EPOCH":20067,"BSTAR":3.721e-8,"MEAN_MOTION_DOT":-2.87e-6,"MEAN_MOTION_DDOT":0},{"OBJECT_NAME":"STARLINK-4157","OBJECT_ID":"2022-076BB","EPOCH":"2026-02-21T12:30:39.443904","MEAN_MOTION":15.08843781,"ECCENTRICITY":0.00013588,"INCLINATION":53.2183,"RA_OF_ASC_NODE":146.7055,"ARG_OF_PERICENTER":78.3645,"MEAN_ANOMALY":281.7499,"EPHEMERIS_TYPE":0,"CLASSIFICATION_TYPE":"U","NORAD_CAT_ID":53035,"ELEMENT_SET_NO":999,"REV_AT_EPOCH":20068,"BSTAR":2.5667728e-5,"MEAN_MOTION_DOT":1.21e-6,"MEAN_MOTION_DDOT":0},{"OBJECT_NAME":"STARLINK-4155","OBJECT_ID":"2022-076BC","EPOCH":"2026-02-21T12:25:21.489312","MEAN_MOTION":15.08843279,"ECCENTRICITY":0.00012851,"INCLINATION":53.2171,"RA_OF_ASC_NODE":146.7176,"ARG_OF_PERICENTER":85.964,"MEAN_ANOMALY":274.1499,"EPHEMERIS_TYPE":0,"CLASSIFICATION_TYPE":"U","NORAD_CAT_ID":53036,"ELEMENT_SET_NO":999,"REV_AT_EPOCH":20068,"BSTAR":5.2236081e-5,"MEAN_MOTION_DOT":5.44e-6,"MEAN_MOTION_DDOT":0},{"OBJECT_NAME":"STARLINK-4153","OBJECT_ID":"2022-076BD","EPOCH":"2026-02-21T12:20:03.420672","MEAN_MOTION":15.08843337,"ECCENTRICITY":0.00012003,"INCLINATION":53.2171,"RA_OF_ASC_NODE":146.7349,"ARG_OF_PERICENTER":96.9094,"MEAN_ANOMALY":263.2034,"EPHEMERIS_TYPE":0,"CLASSIFICATION_TYPE":"U","NORAD_CAT_ID":53037,"ELEMENT_SET_NO":999,"REV_AT_EPOCH":20068,"BSTAR":5.3308786e-5,"MEAN_MOTION_DOT":5.61e-6,"MEAN_MOTION_DDOT":0},{"OBJECT_NAME":"STARLINK-4156","OBJECT_ID":"2022-076BE","EPOCH":"2026-02-21T12:14:46.909824","MEAN_MOTION":15.0883901,"ECCENTRICITY":9.736e-5,"INCLINATION":53.2173,"RA_OF_ASC_NODE":146.7546,"ARG_OF_PERICENTER":77.9031,"MEAN_ANOMALY":282.207,"EPHEMERIS_TYPE":0,"CLASSIFICATION_TYPE":"U","NORAD_CAT_ID":53038,"ELEMENT_SET_NO":999,"REV_AT_EPOCH":20068,"BSTAR":4.6750202e-5,"MEAN_MOTION_DOT":4.56e-6,"MEAN_MOTION_DDOT":0},{"OBJECT_NAME":"STARLINK-4362","OBJECT_ID":"2022-077A","EPOCH":"2026-02-21T13:54:35.685216","MEAN_MOTION":15.01319753,"ECCENTRICITY":0.00019992,"INCLINATION":97.6033,"RA_OF_ASC_NODE":234.4518,"ARG_OF_PERICENTER":76.1834,"MEAN_ANOMALY":283.9613,"EPHEMERIS_TYPE":0,"CLASSIFICATION_TYPE":"U","NORAD_CAT_ID":53043,"ELEMENT_SET_NO":999,"REV_AT_EPOCH":19850,"BSTAR":-0.00092587602,"MEAN_MOTION_DOT":-0.00011949,"MEAN_MOTION_DDOT":0},{"OBJECT_NAME":"STARLINK-4349","OBJECT_ID":"2022-077B","EPOCH":"2026-02-21T14:00:01.999872","MEAN_MOTION":15.76645373,"ECCENTRICITY":0.00018692,"INCLINATION":97.6026,"RA_OF_ASC_NODE":241.0615,"ARG_OF_PERICENTER":21.2243,"MEAN_ANOMALY":207.4717,"EPHEMERIS_TYPE":0,"CLASSIFICATION_TYPE":"U","NORAD_CAT_ID":53044,"ELEMENT_SET_NO":999,"REV_AT_EPOCH":593,"BSTAR":0.0013254303,"MEAN_MOTION_DOT":0.00215917,"MEAN_MOTION_DDOT":0},{"OBJECT_NAME":"STARLINK-4350","OBJECT_ID":"2022-077C","EPOCH":"2026-02-21T12:22:55.285824","MEAN_MOTION":15.05644078,"ECCENTRICITY":0.00016654,"INCLINATION":97.6035,"RA_OF_ASC_NODE":235.2814,"ARG_OF_PERICENTER":79.4253,"MEAN_ANOMALY":280.7161,"EPHEMERIS_TYPE":0,"CLASSIFICATION_TYPE":"U","NORAD_CAT_ID":53045,"ELEMENT_SET_NO":999,"REV_AT_EPOCH":19855,"BSTAR":6.8379965e-5,"MEAN_MOTION_DOT":9.26e-6,"MEAN_MOTION_DDOT":0},{"OBJECT_NAME":"STARLINK-4331","OBJECT_ID":"2022-077D","EPOCH":"2026-02-21T14:34:31.622016","MEAN_MOTION":15.05646804,"ECCENTRICITY":0.00015344,"INCLINATION":97.6031,"RA_OF_ASC_NODE":235.4655,"ARG_OF_PERICENTER":84.3307,"MEAN_ANOMALY":275.8095,"EPHEMERIS_TYPE":0,"CLASSIFICATION_TYPE":"U","NORAD_CAT_ID":53046,"ELEMENT_SET_NO":999,"REV_AT_EPOCH":19857,"BSTAR":-1.653505e-6,"MEAN_MOTION_DOT":-8.5e-7,"MEAN_MOTION_DDOT":0},{"OBJECT_NAME":"STARLINK-4352","OBJECT_ID":"2022-077E","EPOCH":"2026-02-21T11:49:39.543456","MEAN_MOTION":15.01271938,"ECCENTRICITY":0.00016926,"INCLINATION":97.6025,"RA_OF_ASC_NODE":234.3957,"ARG_OF_PERICENTER":61.541,"MEAN_ANOMALY":298.5985,"EPHEMERIS_TYPE":0,"CLASSIFICATION_TYPE":"U","NORAD_CAT_ID":53047,"ELEMENT_SET_NO":999,"REV_AT_EPOCH":19849,"BSTAR":6.232082e-5,"MEAN_MOTION_DOT":7.43e-6,"MEAN_MOTION_DDOT":0},{"OBJECT_NAME":"STARLINK-4355","OBJECT_ID":"2022-077F","EPOCH":"2026-02-21T12:03:02.060352","MEAN_MOTION":15.05582229,"ECCENTRICITY":0.00017813,"INCLINATION":97.6033,"RA_OF_ASC_NODE":235.2959,"ARG_OF_PERICENTER":96.1779,"MEAN_ANOMALY":263.9651,"EPHEMERIS_TYPE":0,"CLASSIFICATION_TYPE":"U","NORAD_CAT_ID":53048,"ELEMENT_SET_NO":999,"REV_AT_EPOCH":19854,"BSTAR":0.0010742089,"MEAN_MOTION_DOT":0.00015445,"MEAN_MOTION_DDOT":0},{"OBJECT_NAME":"STARLINK-4345","OBJECT_ID":"2022-077G","EPOCH":"2026-02-21T11:57:18.171072","MEAN_MOTION":15.01262841,"ECCENTRICITY":0.00019482,"INCLINATION":97.6028,"RA_OF_ASC_NODE":234.3778,"ARG_OF_PERICENTER":28.6766,"MEAN_ANOMALY":331.4565,"EPHEMERIS_TYPE":0,"CLASSIFICATION_TYPE":"U","NORAD_CAT_ID":53049,"ELEMENT_SET_NO":999,"REV_AT_EPOCH":19848,"BSTAR":6.008982e-6,"MEAN_MOTION_DOT":1.9e-7,"MEAN_MOTION_DDOT":0},{"OBJECT_NAME":"STARLINK-4343","OBJECT_ID":"2022-077H","EPOCH":"2026-02-21T10:59:10.817376","MEAN_MOTION":15.0565081,"ECCENTRICITY":0.00011997,"INCLINATION":97.6021,"RA_OF_ASC_NODE":235.1952,"ARG_OF_PERICENTER":97.7359,"MEAN_ANOMALY":262.4004,"EPHEMERIS_TYPE":0,"CLASSIFICATION_TYPE":"U","NORAD_CAT_ID":53050,"ELEMENT_SET_NO":999,"REV_AT_EPOCH":19853,"BSTAR":3.6117204e-5,"MEAN_MOTION_DOT":4.6e-6,"MEAN_MOTION_DDOT":0},{"OBJECT_NAME":"STARLINK-4336","OBJECT_ID":"2022-077J","EPOCH":"2026-02-21T12:07:57.778176","MEAN_MOTION":15.01271786,"ECCENTRICITY":0.00031003,"INCLINATION":97.6013,"RA_OF_ASC_NODE":234.363,"ARG_OF_PERICENTER":80.679,"MEAN_ANOMALY":279.4784,"EPHEMERIS_TYPE":0,"CLASSIFICATION_TYPE":"U","NORAD_CAT_ID":53051,"ELEMENT_SET_NO":999,"REV_AT_EPOCH":19848,"BSTAR":-0.00032438347,"MEAN_MOTION_DOT":-4.224e-5,"MEAN_MOTION_DDOT":0},{"OBJECT_NAME":"STARLINK-4341","OBJECT_ID":"2022-077K","EPOCH":"2026-02-21T12:02:38.372064","MEAN_MOTION":15.01261701,"ECCENTRICITY":0.00031302,"INCLINATION":97.6027,"RA_OF_ASC_NODE":234.3767,"ARG_OF_PERICENTER":49.2046,"MEAN_ANOMALY":310.9449,"EPHEMERIS_TYPE":0,"CLASSIFICATION_TYPE":"U","NORAD_CAT_ID":53052,"ELEMENT_SET_NO":999,"REV_AT_EPOCH":19848,"BSTAR":1.8707515e-5,"MEAN_MOTION_DOT":1.82e-6,"MEAN_MOTION_DDOT":0}]
