STARLINK-4167           
1 53033U 22076AZ  26052.52864900  .00002261  00000+0  16006-3 0  9996
2 53033  53.2160 146.6720 0001141  81.0634 279.0488 15.08854224200681
STARLINK-4151           
1 53034U 22076BA  26052.47072278 -.00000287  00000+0  37210-7 0  9991
2 53034  53.2168 146.9813 0001264 119.1307 240.9812 15.08845892200670
STARLINK-4157           
1 53035U 22076BB  26052.52128986  .00000121  00000+0  25668-4 0  9993
2 53035  53.2183 146.7055 0001358  78.3645 281.7499 15.08843781200689
STARLINK-4155           
1 53036U 22076BC  26052.51760983  .00000544  00000+0  52236-4 0  9992
2 53036  53.2171 146.7176 0001285  85.9640 274.1499 15.08843279200687
STARLINK-4153           
1 53037U 22076BD  26052.51392848  .00000561  00000+0  53309-4 0  9995
2 53037  53.2171 146.7349 0001200  96.9094 263.2034 15.08843337200681
STARLINK-4156           
1 53038U 22076BE  26052.51026516  .00000456  00000+0  46750-4 0  9997
2 53038  53.2173 146.7546 0000973  77.9031 282.2070 15.08839010200683
STARLINK-4362           
1 53043U 22077A   26052.57957969 -.00011949  00000+0 -92588-3 0  9995
2 53043  97.6033 234.4518 0001999  76.1834 283.9613 15.01319753198509
STARLINK-4349           
1 53044U 22077B   26052.58335648  .00215917  00000+0  13254-2 0  9992
2 53044  97.6026 241.0615 0001869  21.2243 207.4717 15.76645373  5937
STARLINK-4350           
1 53045U 22077C   26052.51591766  .00000926  00000+0  68380-4 0  9995
2 53045  97.6035 235.2814 0001665  79.4253 280.7161 15.05644078198555
STARLINK-4331           
1 53046U 22077D   26052.60731044 -.00000085  00000+0 -16535-5 0  9995
2 53046  97.6031 235.4655 0001534  84.3307 275.8095 15.05646804198579
STARLINK-4352           
1 53047U 22077E   26052.49281879  .00000743  00000+0  62321-4 0  9991
2 53047  97.6025 234.3957 0001692  61.5410 298.5985 15.01271938198492
STARLINK-4355           
1 53048U 22077F   26052.50210718  .00015445  00000+0  10742-2 0  9991
2 53048  97.6033 235.2959 0001781  96.1779 263.9651 15.05582229198549
STARLINK-4345           
1 53049U 22077G   26052.49812698  .00000019  00000+0  60090-5 0  9990
2 53049  97.6028 234.3778 0001948  28.6766 331.4565 15.01262841198483
STARLINK-4343           
1 53050U 22077H   26052.45776409  .00000460  00000+0  36117-4 0  9999
2 53050  97.6021 235.1952 0001199  97.7359 262.4004 15.05650810198532
STARLINK-4336           
1 53051U 22077J   26052.50552984 -.00004224  00000+0 -32438-3 0  9991
2 53051  97.6013 234.3630 0003100  80.6790 279.4784 15.01271786198486
STARLINK-4341           
1 53052U 22077K   26052.50183301  .00000182  00000+0  18708-4 0  9997
2 53052  97.6027 234.3767 0003130  49.2046 310.9449 15.01261701198486
